ONEWEB-0697             
1 61603U 24188K   24359.44390603  .00019887  00000+0  24409-2 0  9994
2 61603  86.5696 142.4840 0003748  66.3463 293.8153 14.82989680 12639
ONEWEB-0698             
1 61604U 24188L   24359.42931905  .00005724  00000+0  70133-3 0  9990
2 61604  86.5785 142.5180 0005430  18.9379 341.2045 14.83000427 12638
ONEWEB-0699             
1 61605U 24188M   24359.91667824  .00000017  00000+0  00000+0 0  9993
2 61605  87.2561 145.4050 0003142  36.9384 251.0208 13.90779014 10630
ONEWEB-0700             
1 61606U 24188N   24359.58334491 -.00990275  00000+0 -83217+0 0  9995
2 61606  87.2472 145.4931 0002222  34.5118 257.2810 13.91284210  5650
ONEWEB-0701             
1 61607U 24188P   24359.58334491 -.01083491  00000+0 -95471+0 0  9995
2 61607  87.2255 145.4686 0003615   7.5272 107.7900 13.88841259 10782
ONEWEB-0702             
1 61608U 24188Q   24359.43487880  .00005457  00000+0  66791-3 0  9991
2 61608  86.5806 142.5338 0005558  17.5512 342.5902 14.83037406 12639
ONEWEB-0704             
1 61609U 24188R   24359.58334491 -.01033491  00000+0 -89587+0 0  9993
2 61609  87.2420 145.5456 0003678  85.7356 137.2994 13.89627180  5561
ONEWEB-0705             
1 61610U 24188S   24359.58334491 -.01092285  00000+0 -84161+0 0  9994
2 61610  87.2929 145.4383 0006109  54.6701 133.6206 13.96592315  5640
